{"type": "FeatureCollection", "features": [{"type": "Feature", "properties": {"norad_id": 36828, "name": "BEIDOU-2 IGSO-1 (C06)", "group": "beidou", "lat": -23.853629523689, "lon": 146.10737000523628, "alt_km": 35875.76334602059, "timestamp": "2025-12-07T20:38:14.328884+00:00", "meta": {"OBJECT_NAME": "BEIDOU-2 IGSO-1 (C06)", "OBJECT_ID": "2010-036A", "EPOCH": "2025-12-06T22:34:51.744288", "MEAN_MOTION": 1.00277718, "ECCENTRICITY": 0.00512366, "INCLINATION": 54.287, "RA_OF_ASC_NODE": 164.7002, "ARG_OF_PERICENTER": 215.8375, "MEAN_ANOMALY": 141.9649, "EPHEMERIS_TYPE": 0, "CLASSIFICATION_TYPE": "U", "NORAD_CAT_ID": 36828, "ELEMENT_SET_NO": 999, "REV_AT_EPOCH": 5616, "BSTAR": 0, "MEAN_MOTION_DOT": -6.2e-07, "MEAN_MOTION_DDOT": 0}, "tle": {"line1": "1 36828U 10036A   25340.94087667 -.00000062  00000+0  00000+0 0  9995", "line2": "2 36828  54.2870 164.7002 0051236 215.8375 141.9649  1.00277718 56168"}}, "geometry": {"type": "Point", "coordinates": [146.10737000523628, -23.853629523689]}}, {"type": "Feature", "properties": {"norad_id": 37210, "name": "BEIDOU-2 G4 (C04)", "group": "beidou", "lat": 2.8320167275971473, "lon": -173.57719107244924, "alt_km": 35772.6095942274, "timestamp": "2025-12-07T20:38:14.328907+00:00", "meta": {"OBJECT_NAME": "BEIDOU-2 G4 (C04)", "OBJECT_ID": "2010-057A", "EPOCH": "2025-12-07T05:50:07.288224", "MEAN_MOTION": 1.00271393, "ECCENTRICITY": 0.00109396, "INCLINATION": 3.1705, "RA_OF_ASC_NODE": 69.9516, "ARG_OF_PERICENTER": 189.9186, "MEAN_ANOMALY": 64.0033, "EPHEMERIS_TYPE": 0, "CLASSIFICATION_TYPE": "U", "NORAD_CAT_ID": 37210, "ELEMENT_SET_NO": 999, "REV_AT_EPOCH": 5536, "BSTAR": 0, "MEAN_MOTION_DOT": -1.08e-06, "MEAN_MOTION_DDOT": 0}, "tle": {"line1": "1 37210U 10057A   25341.24313991 -.00000108  00000+0  00000+0 0  9991", "line2": "2 37210   3.1705  69.9516 0010939 189.9186  64.0033  1.00271393 55362"}}, "geometry": {"type": "Point", "coordinates": [-173.57719107244924, 2.8320167275971473]}}, {"type": "Feature", "properties": {"norad_id": 37256, "name": "BEIDOU-2 IGSO-2 (C07)", "group": "beidou", "lat": -28.29174554161182, "lon": 123.24248107557472, "alt_km": 35578.88922518591, "timestamp": "2025-12-07T20:38:14.328922+00:00", "meta": {"OBJECT_NAME": "BEIDOU-2 IGSO-2 (C07)", "OBJECT_ID": "2010-068A", "EPOCH": "2025-12-03T17:22:36.030432", "MEAN_MOTION": 1.0028871, "ECCENTRICITY": 0.00492335, "INCLINATION": 47.9043, "RA_OF_ASC_NODE": 274.2613, "ARG_OF_PERICENTER": 216.1442, "MEAN_ANOMALY": 310.2369, "EPHEMERIS_TYPE": 0, "CLASSIFICATION_TYPE": "U", "NORAD_CAT_ID": 37256, "ELEMENT_SET_NO": 999, "REV_AT_EPOCH": 5483, "BSTAR": 0, "MEAN_MOTION_DOT": -2.25e-06, "MEAN_MOTION_DDOT": 0}, "tle": {"line1": "1 37256U 10068A   25337.72402813 -.00000225  00000+0  00000+0 0  9993", "line2": "2 37256  47.9043 274.2613 0049233 216.1442 310.2369  1.00288710 54839"}}, "geometry": {"type": "Point", "coordinates": [123.24248107557472, -28.29174554161182]}}, {"type": "Feature", "properties": {"norad_id": 37384, "name": "BEIDOU-2 IGSO-3 (C08)", "group": "beidou", "lat": 62.112034305405146, "lon": 135.51793944896133, "alt_km": 35792.98869232289, "timestamp": "2025-12-07T20:38:14.328936+00:00", "meta": {"OBJECT_NAME": "BEIDOU-2 IGSO-3 (C08)", "OBJECT_ID": "2011-013A", "EPOCH": "2025-12-03T14:52:09.520896", "MEAN_MOTION": 1.00272128, "ECCENTRICITY": 0.00353922, "INCLINATION": 62.1308, "RA_OF_ASC_NODE": 42.005, "ARG_OF_PERICENTER": 186.5359, "MEAN_ANOMALY": 174.9093, "EPHEMERIS_TYPE": 0, "CLASSIFICATION_TYPE": "U", "NORAD_CAT_ID": 37384, "ELEMENT_SET_NO": 999, "REV_AT_EPOCH": 5370, "BSTAR": 0, "MEAN_MOTION_DOT": -1.99e-06, "MEAN_MOTION_DDOT": 0}, "tle": {"line1": "1 37384U 11013A   25337.61955464 -.00000199  00000+0  00000+0 0  9999", "line2": "2 37384  62.1308  42.0050 0035392 186.5359 174.9093  1.00272128 53708"}}, "geometry": {"type": "Point", "coordinates": [135.51793944896133, 62.112034305405146]}}, {"type": "Feature", "properties": {"norad_id": 37763, "name": "BEIDOU-2 IGSO-4 (C09)", "group": "beidou", "lat": -35.17812775303788, "lon": 137.22916203886032, "alt_km": 35720.42350997573, "timestamp": "2025-12-07T20:38:14.328949+00:00", "meta": {"OBJECT_NAME": "BEIDOU-2 IGSO-4 (C09)", "OBJECT_ID": "2011-038A", "EPOCH": "2025-12-01T12:32:09.960864", "MEAN_MOTION": 1.00284074, "ECCENTRICITY": 0.01487808, "INCLINATION": 54.5808, "RA_OF_ASC_NODE": 167.4476, "ARG_OF_PERICENTER": 230.2031, "MEAN_ANOMALY": 315.0387, "EPHEMERIS_TYPE": 0, "CLASSIFICATION_TYPE": "U", "NORAD_CAT_ID": 37763, "ELEMENT_SET_NO": 999, "REV_AT_EPOCH": 5266, "BSTAR": 0, "MEAN_MOTION_DOT": 1.01e-06, "MEAN_MOTION_DDOT": 0}, "tle": {"line1": "1 37763U 11038A   25335.52233751  .00000101  00000+0  00000+0 0  9995", "line2": "2 37763  54.5808 167.4476 0148780 230.2031 315.0387  1.00284074 52664"}}, "geometry": {"type": "Point", "coordinates": [137.22916203886032, -35.17812775303788]}}, {"type": "Feature", "properties": {"norad_id": 37948, "name": "BEIDOU-2 IGSO-5 (C10)", "group": "beidou", "lat": -18.216149491166117, "lon": 111.08397749899419, "alt_km": 35339.16808686803, "timestamp": "2025-12-07T20:38:14.328962+00:00", "meta": {"OBJECT_NAME": "BEIDOU-2 IGSO-5 (C10)", "OBJECT_ID": "2011-073A", "EPOCH": "2025-12-06T19:14:09.676896", "MEAN_MOTION": 1.00291748, "ECCENTRICITY": 0.01104743, "INCLINATION": 48.0318, "RA_OF_ASC_NODE": 273.9307, "ARG_OF_PERICENTER": 222.1618, "MEAN_ANOMALY": 320.8955, "EPHEMERIS_TYPE": 0, "CLASSIFICATION_TYPE": "U", "NORAD_CAT_ID": 37948, "ELEMENT_SET_NO": 999, "REV_AT_EPOCH": 5120, "BSTAR": 0, "MEAN_MOTION_DOT": -1.84e-06, "MEAN_MOTION_DDOT": 0}, "tle": {"line1": "1 37948U 11073A   25340.80150089 -.00000184  00000+0  00000+0 0  9990", "line2": "2 37948  48.0318 273.9307 0110474 222.1618 320.8955  1.00291748 51209"}}, "geometry": {"type": "Point", "coordinates": [111.08397749899419, -18.216149491166117]}}, {"type": "Feature", "properties": {"norad_id": 38091, "name": "BEIDOU-2 G5 (C05)", "group": "beidou", "lat": 0.7991135893394335, "lon": 85.21977537050869, "alt_km": 35830.35300840742, "timestamp": "2025-12-07T20:38:14.328974+00:00", "meta": {"OBJECT_NAME": "BEIDOU-2 G5 (C05)", "OBJECT_ID": "2012-008A", "EPOCH": "2025-12-07T03:38:26.717568", "MEAN_MOTION": 1.00273604, "ECCENTRICITY": 0.00125154, "INCLINATION": 3.0949, "RA_OF_ASC_NODE": 70.7251, "ARG_OF_PERICENTER": 226.4508, "MEAN_ANOMALY": 252.3414, "EPHEMERIS_TYPE": 0, "CLASSIFICATION_TYPE": "U", "NORAD_CAT_ID": 38091, "ELEMENT_SET_NO": 999, "REV_AT_EPOCH": 5044, "BSTAR": 0, "MEAN_MOTION_DOT": 6e-07, "MEAN_MOTION_DDOT": 0}, "tle": {"line1": "1 38091U 12008A   25341.15169812  .00000060  00000+0  00000+0 0  9994", "line2": "2 38091   3.0949  70.7251 0012515 226.4508 252.3414  1.00273604 50448"}}, "geometry": {"type": "Point", "coordinates": [85.21977537050869, 0.7991135893394335]}}, {"type": "Feature", "properties": {"norad_id": 38250, "name": "BEIDOU-2 M3 (C11)", "group": "beidou", "lat": -48.398613727638, "lon": -179.06678300623474, "alt_km": 21474.168159122517, "timestamp": "2025-12-07T20:38:14.328986+00:00", "meta": {"OBJECT_NAME": "BEIDOU-2 M3 (C11)", "OBJECT_ID": "2012-018A", "EPOCH": "2025-12-05T21:12:32.531040", "MEAN_MOTION": 1.86229708, "ECCENTRICITY": 0.00244284, "INCLINATION": 55.926, "RA_OF_ASC_NODE": 311.388, "ARG_OF_PERICENTER": 273.8805, "MEAN_ANOMALY": 85.8231, "EPHEMERIS_TYPE": 0, "CLASSIFICATION_TYPE": "U", "NORAD_CAT_ID": 38250, "ELEMENT_SET_NO": 999, "REV_AT_EPOCH": 9234, "BSTAR": 0, "MEAN_MOTION_DOT": -7e-07, "MEAN_MOTION_DDOT": 0}, "tle": {"line1": "1 38250U 12018A   25339.88370985 -.00000070  00000+0  00000+0 0  9996", "line2": "2 38250  55.9260 311.3880 0024428 273.8805  85.8231  1.86229708 92342"}}, "geometry": {"type": "Point", "coordinates": [-179.06678300623474, -48.398613727638]}}, {"type": "Feature", "properties": {"norad_id": 38251, "name": "BEIDOU-2 M4 (C12)", "group": "beidou", "lat": -50.86773635628306, "lon": -106.03464523360728, "alt_km": 21491.487602056564, "timestamp": "2025-12-07T20:38:14.328997+00:00", "meta": {"OBJECT_NAME": "BEIDOU-2 M4 (C12)", "OBJECT_ID": "2012-018B", "EPOCH": "2025-12-06T21:21:07.920864", "MEAN_MOTION": 1.86229417, "ECCENTRICITY": 0.00155481, "INCLINATION": 55.8267, "RA_OF_ASC_NODE": 310.5837, "ARG_OF_PERICENTER": 277.2746, "MEAN_ANOMALY": 82.5325, "EPHEMERIS_TYPE": 0, "CLASSIFICATION_TYPE": "U", "NORAD_CAT_ID": 38251, "ELEMENT_SET_NO": 999, "REV_AT_EPOCH": 9236, "BSTAR": 0, "MEAN_MOTION_DOT": -7e-07, "MEAN_MOTION_DDOT": 0}, "tle": {"line1": "1 38251U 12018B   25340.88967501 -.00000070  00000+0  00000+0 0  9995", "line2": "2 38251  55.8267 310.5837 0015548 277.2746  82.5325  1.86229417 92364"}}, "geometry": {"type": "Point", "coordinates": [-106.03464523360728, -50.86773635628306]}}, {"type": "Feature", "properties": {"norad_id": 38775, "name": "BEIDOU-2 M6 (C14)", "group": "beidou", "lat": 43.439684881459634, "lon": -149.75433666249035, "alt_km": 21545.802109797194, "timestamp": "2025-12-07T20:38:14.329009+00:00", "meta": {"OBJECT_NAME": "BEIDOU-2 M6 (C14)", "OBJECT_ID": "2012-050B", "EPOCH": "2025-12-06T01:31:40.709568", "MEAN_MOTION": 1.86230702, "ECCENTRICITY": 0.00109743, "INCLINATION": 56.3728, "RA_OF_ASC_NODE": 69.289, "ARG_OF_PERICENTER": 345.7667, "MEAN_ANOMALY": 14.2153, "EPHEMERIS_TYPE": 0, "CLASSIFICATION_TYPE": "U", "NORAD_CAT_ID": 38775, "ELEMENT_SET_NO": 999, "REV_AT_EPOCH": 8971, "BSTAR": 0, "MEAN_MOTION_DOT": -4.7e-07, "MEAN_MOTION_DDOT": 0}, "tle": {"line1": "1 38775U 12050B   25340.06366562 -.00000047  00000+0  00000+0 0  9996", "line2": "2 38775  56.3728  69.2890 0010974 345.7667  14.2153  1.86230702 89716"}}, "geometry": {"type": "Point", "coordinates": [-149.75433666249035, 43.439684881459634]}}]}